OBJECT_NAME,OBJECT_ID,EPOCH,MEAN_MOTION,ECCENTRICITY,INCLINATION,RA_OF_ASC_NODE,ARG_OF_PERICENTER,MEAN_ANOMALY,EPHEMERIS_TYPE,CLASSIFICATION_TYPE,NORAD_CAT_ID,ELEMENT_SET_NO,REV_AT_EPOCH,BSTAR,MEAN_MOTION_DOT,MEAN_MOTION_DDOT
JAM-E JAM 1,2026-028B,2026-06-09T04:56:37.344192,1.00272007,.000096,0.2779,299.8306,299.5262,126.2809,0,U,67757,999,104,0,.172E-5,0
ECHOSTAR 25,2026-045A,2026-06-08T23:07:36.374880,1.00271290,.00013199,0.0176,340.7039,108.2721,45.2832,0,U,68126,999,91,0,-.4E-6,0
