JAM-E JAM 1             
1 67757U 26028B   26160.20598778  .00000172  00000+0  00000+0 0  9999
2 67757   0.2779 299.8306 0000959 299.5262 126.2809  1.00272007  1046
ECHOSTAR 25             
1 68126U 26045A   26159.96361545 -.00000040  00000+0  00000+0 0  9995
2 68126   0.0176 340.7039 0001319 108.2721  45.2832  1.00271290   916
